[{"OBJECT_NAME":"STARLINK-3071","OBJECT_ID":"2021-082T","EPOCH":"2026-03-09T22:19:52.183776","MEAN_MOTION":14.98331789,"ECCENTRICITY":0.00029441,"INCLINATION":69.9986,"RA_OF_ASC_NODE":253.8497,"ARG_OF_PERICENTER":271.7644,"MEAN_ANOMALY":88.3178,"EPHEMERIS_TYPE":0,"CLASSIFICATION_TYPE":"U","NORAD_CAT_ID":49147,"ELEMENT_SET_NO":999,"REV_AT_EPOCH":24700,"BSTAR":2.3521019e-5,"MEAN_MOTION_DOT":1.88e-6,"MEAN_MOTION_DDOT":0},{"OBJECT_NAME":"UNKNOWN","OBJECT_ID":"","EPOCH":"2026-03-08T22:04:04.381824","MEAN_MOTION":14.54769338,"ECCENTRICITY":0.0296144,"INCLINATION":65.656,"RA_OF_ASC_NODE":44.0504,"ARG_OF_PERICENTER":173.1079,"MEAN_ANOMALY":187.4242,"EPHEMERIS_TYPE":0,"CLASSIFICATION_TYPE":"U","NORAD_CAT_ID":82180,"ELEMENT_SET_NO":999,"REV_AT_EPOCH":61426,"BSTAR":0.0016597,"MEAN_MOTION_DOT":0.00012787,"MEAN_MOTION_DDOT":0}]
